[{"OBJECT_ID":"1993-036LQ","OBJECT_NAME":"COSMOS 2251 DEB","NORAD_CAT_ID":"34270","OBJECT_TYPE":"DEBRIS","PERIOD":"99.212","INCLINATION":"74.0151","APOGEE":"764.553","PERIGEE":"677.397","ECCENTRICITY":"0.0061385","MEAN_MOTION":"14.51432658","TLE_LINE1":"1 34270U 93036LQ  16238.58949167 +.00000370 +00000-0 +97620-4 0  9994","TLE_LINE2":"2 34270 074.0151 260.2920 0061385 167.2512 193.0220 14.51432658397144","LAUNCH_DATE":"1993-06-16","LAUNCH_SITE":"PLESETSK MISSILE AND SPACE COMPLEX","OWNER":"COMMONWEALTH OF INDEPENDENT STATES","ORBIT_TYPE":"Low Earth Orbit","OPERATIONAL_STATUS":"N/A, space debris"},{"OBJECT_ID":"1993-036LR","OBJECT_NAME":"COSMOS 2251 DEB","NORAD_CAT_ID":"34271","OBJECT_TYPE":"DEBRIS","PERIOD":"100.157","INCLINATION":"74.0344","APOGEE":"792.618","PERIGEE":"739.360","ECCENTRICITY":"0.0037274","MEAN_MOTION":"14.37736303","TLE_LINE1":"1 34271U 93036LR  16239.49699986  .00000735  00000-0  25106-3 0  9991","TLE_LINE2":"2 34271  74.0344  39.1487 0037274 204.2263 211.7826 14.37736303392227","LAUNCH_DATE":"1993-06-16","LAUNCH_SITE":"PLESETSK MISSILE AND SPACE COMPLEX","OWNER":"COMMONWEALTH OF INDEPENDENT STATES","ORBIT_TYPE":"Low Earth Orbit","OPERATIONAL_STATUS":"N/A, space debris"},{"OBJECT_ID":"1993-036LT","OBJECT_NAME":"COSMOS 2251 DEB","NORAD_CAT_ID":"34273","OBJECT_TYPE":"DEBRIS","PERIOD":"99.663","INCLINATION":"74.0445","APOGEE":"756.479","PERIGEE":"728.445","ECCENTRICITY":"0.0019685","MEAN_MOTION":"14.44867726","TLE_LINE1":"1 34273U 93036LT  16239.21161728  .00000470  00000-0  14232-3 0  9995","TLE_LINE2":"2 34273  74.0445 326.5316 0019685 213.9566 172.1338 14.44867726394743","LAUNCH_DATE":"1993-06-16","LAUNCH_SITE":"PLESETSK MISSILE AND SPACE COMPLEX","OWNER":"COMMONWEALTH OF INDEPENDENT STATES","ORBIT_TYPE":"Low Earth Orbit","OPERATIONAL_STATUS":"N/A, space debris"},{"OBJECT_ID":"1993-036LU","OBJECT_NAME":"COSMOS 2251 DEB","NORAD_CAT_ID":"34274","OBJECT_TYPE":"DEBRIS","PERIOD":"99.678","INCLINATION":"74.0146","APOGEE":"765.240","PERIGEE":"721.198","ECCENTRICITY":"0.0030922","MEAN_MOTION":"14.44637362","TLE_LINE1":"1 34274U 93036LU  16238.70117035  .00000490  00000-0  14856-3 0  9995","TLE_LINE2":"2 34274  74.0146 325.4386 0030922 210.7908 271.4554 14.44637362394978","LAUNCH_DATE":"1993-06-16","LAUNCH_SITE":"PLESETSK MISSILE AND SPACE COMPLEX","OWNER":"COMMONWEALTH OF INDEPENDENT STATES","ORBIT_TYPE":"Low Earth Orbit","OPERATIONAL_STATUS":"N/A, space debris"},{"OBJECT_ID":"1993-036LV","OBJECT_NAME":"COSMOS 2251 DEB","NORAD_CAT_ID":"34275","OBJECT_TYPE":"DEBRIS","PERIOD":"99.555","INCLINATION":"74.0349","APOGEE":"746.865","PERIGEE":"727.844","ECCENTRICITY":"0.0013366","MEAN_MOTION":"14.46423645","TLE_LINE1":"1 34275U 93036LV  16238.80586836 +.00001495 +00000-0 +42305-3 0  9992","TLE_LINE2":"2 34275 074.0349 351.4994 0013366 166.2928 315.5904 14.46423645393942","LAUNCH_DATE":"1993-06-16","LAUNCH_SITE":"PLESETSK MISSILE AND SPACE COMPLEX","OWNER":"COMMONWEALTH OF INDEPENDENT STATES","ORBIT_TYPE":"Low Earth Orbit","OPERATIONAL_STATUS":"N/A, space debris"},{"OBJECT_ID":"1993-036LW","OBJECT_NAME":"COSMOS 2251 DEB","NORAD_CAT_ID":"34276","OBJECT_TYPE":"DEBRIS","PERIOD":"99.691","INCLINATION":"74.0286","APOGEE":"763.963","PERIGEE":"723.658","ECCENTRICITY":"0.0028296","MEAN_MOTION":"14.44457484","TLE_LINE1":"1 34276U 93036LW  16238.92190079 +.00000398 +00000-0 +12273-3 0  9998","TLE_LINE2":"2 34276 074.0286 318.7437 0028296 216.3324 264.9197 14.44457484394629","LAUNCH_DATE":"1993-06-16","LAUNCH_SITE":"PLESETSK MISSILE AND SPACE COMPLEX","OWNER":"COMMONWEALTH OF INDEPENDENT STATES","ORBIT_TYPE":"Low Earth Orbit","OPERATIONAL_STATUS":"N/A, space debris"},{"OBJECT_ID":"1993-036LX","OBJECT_NAME":"COSMOS 2251 DEB","NORAD_CAT_ID":"34277","OBJECT_TYPE":"DEBRIS","PERIOD":"96.885","INCLINATION":"73.6961","APOGEE":"633.729","PERIGEE":"585.395","ECCENTRICITY":"0.0034585","MEAN_MOTION":"14.86283414","TLE_LINE1":"1 34277U 93036LX  16238.94169557 +.00003787 +00000-0 +43010-3 0  9996","TLE_LINE2":"2 34277 073.6961 068.7951 0034585 286.0762 073.6609 14.86283414400881","LAUNCH_DATE":"1993-06-16","LAUNCH_SITE":"PLESETSK MISSILE AND SPACE COMPLEX","OWNER":"COMMONWEALTH OF INDEPENDENT STATES","ORBIT_TYPE":"Low Earth Orbit","OPERATIONAL_STATUS":"N/A, space debris"},{"OBJECT_ID":"1993-036MN","OBJECT_NAME":"COSMOS 2251 DEB","NORAD_CAT_ID":"34292","OBJECT_TYPE":"DEBRIS","PERIOD":"97.663","INCLINATION":"74.0615","APOGEE":"695.327","PERIGEE":"598.493","ECCENTRICITY":"0.0068921","MEAN_MOTION":"14.74446599","TLE_LINE1":"1 34292U 93036MN  16238.89928789 +.00001653 +00000-0 +24466-3 0  9991","TLE_LINE2":"2 34292 074.0615 159.9437 0068921 029.2819 331.2188 14.74446599400812","LAUNCH_DATE":"1993-06-16","LAUNCH_SITE":"PLESETSK MISSILE AND SPACE COMPLEX","OWNER":"COMMONWEALTH OF INDEPENDENT STATES","ORBIT_TYPE":"Low Earth Orbit","OPERATIONAL_STATUS":"N/A, space debris"},{"OBJECT_ID":"1993-036MP","OBJECT_NAME":"COSMOS 2251 DEB","NORAD_CAT_ID":"34293","OBJECT_TYPE":"DEBRIS","PERIOD":"96.681","INCLINATION":"73.9668","APOGEE":"657.275","PERIGEE":"542.228","ECCENTRICITY":"0.0082437","MEAN_MOTION":"14.89419011","TLE_LINE1":"1 34293U 93036MP  16238.71045134  .00004185  00000-0  41674-3 0  9990","TLE_LINE2":"2 34293  73.9668  93.9636 0082437 118.0672 306.5721 14.89419011402173","LAUNCH_DATE":"1993-06-16","LAUNCH_SITE":"PLESETSK MISSILE AND SPACE COMPLEX","OWNER":"COMMONWEALTH OF INDEPENDENT STATES","ORBIT_TYPE":"Low Earth Orbit","OPERATIONAL_STATUS":"N/A, space debris"},{"OBJECT_ID":"1993-036MQ","OBJECT_NAME":"COSMOS 2251 DEB","NORAD_CAT_ID":"34294","OBJECT_TYPE":"DEBRIS","PERIOD":"95.626","INCLINATION":"73.937","APOGEE":"585.738","PERIGEE":"512.049","ECCENTRICITY":"0.005319","MEAN_MOTION":"15.0585188","TLE_LINE1":"1 34294U 93036MQ  16238.86522339 +.00014442 +00000-0 +96431-3 0  9992","TLE_LINE2":"2 34294 073.9370 133.8092 0053190 029.5032 043.4530 15.05851880400776","LAUNCH_DATE":"1993-06-16","LAUNCH_SITE":"PLESETSK MISSILE AND SPACE COMPLEX","OWNER":"COMMONWEALTH OF INDEPENDENT STATES","ORBIT_TYPE":"Low Earth Orbit","OPERATIONAL_STATUS":"N/A, space debris"},{"OBJECT_ID":"1993-036MR","OBJECT_NAME":"COSMOS 2251 DEB","NORAD_CAT_ID":"34295","OBJECT_TYPE":"DEBRIS","PERIOD":"98.442","INCLINATION":"74.0177","APOGEE":"745.543","PERIGEE":"622.863","ECCENTRICITY":"0.0086855","MEAN_MOTION":"14.62783163","TLE_LINE1":"1 34295U 93036MR  16238.78179549 +.00001209 +00000-0 +23077-3 0  9998","TLE_LINE2":"2 34295 074.0177 236.0399 0086855 246.6613 169.1997 14.62783163398174","LAUNCH_DATE":"1993-06-16","LAUNCH_SITE":"PLESETSK MISSILE AND SPACE COMPLEX","OWNER":"COMMONWEALTH OF INDEPENDENT STATES","ORBIT_TYPE":"Low Earth Orbit","OPERATIONAL_STATUS":"N/A, space debris"}]